BANDWAGON-2 OBJECT D    
1 62380U 24247D   26068.52261193  .00011259  00000+0  40119-3 0  9994
2 62380  44.9954 115.6710 0003488 351.1453   8.9368 15.29076102 67732
STARLINK-35694          
1 66389U 25257K   26068.66949557  .00024476  00000+0  83579-3 0  9993
2 66389  53.1607 216.8869 0001269  78.5683 281.5460 15.30200096 19733
